{
  "type": "FeatureCollection",
  "features": [
    {
      "type": "Feature",
      "properties": {
        "norad_id": 66753,
        "name": "ICEYE-X60",
        "group": "last-30-days",
        "lat": 34.93478061692795,
        "lon": 67.00479430265615,
        "alt_km": 512.0306415925124,
        "timestamp": "2025-12-26T17:24:53.440427+00:00",
        "meta_object_name": "ICEYE-X60",
        "meta_object_id": "2025-276CR",
        "meta_epoch": "2025-12-26T06:10:53.042304",
        "meta_mean_motion": 15.17417771,
        "meta_eccentricity": 0.00011006,
        "meta_inclination": 97.4401,
        "meta_ra_of_asc_node": 71.7824,
        "meta_arg_of_pericenter": 248.0802,
        "meta_mean_anomaly": 112.0314,
        "meta_ephemeris_type": 0,
        "meta_classification_type": "U",
        "meta_norad_cat_id": 66753,
        "meta_element_set_no": 999,
        "meta_rev_at_epoch": 417,
        "meta_bstar": 0.00041849963,
        "meta_mean_motion_dot": 8.305e-05,
        "meta_mean_motion_ddot": 0,
        "tle_line1": "1 66753U 25276CR  25360.25755836  .00008305  00000+0  41850-3 0  9992",
        "tle_line2": "2 66753  97.4401  71.7824 0001100 248.0802 112.0314 15.17417771  4174"
      },
      "geometry": {
        "type": "Point",
        "coordinates": [
          67.00479430265615,
          34.93478061692795
        ]
      }
    },
    {
      "type": "Feature",
      "properties": {
        "norad_id": 66754,
        "name": "ICEYE-X61",
        "group": "last-30-days",
        "lat": 80.18929812732262,
        "lon": 23.17640286009154,
        "alt_km": 505.0166318348929,
        "timestamp": "2025-12-26T17:24:53.440437+00:00",
        "meta_object_name": "ICEYE-X61",
        "meta_object_id": "2025-276CS",
        "meta_epoch": "2025-12-26T05:58:21.645696",
        "meta_mean_motion": 15.17875463,
        "meta_eccentricity": 0.00025968,
        "meta_inclination": 97.4398,
        "meta_ra_of_asc_node": 71.793,
        "meta_arg_of_pericenter": 180.1367,
        "meta_mean_anomaly": 179.9866,
        "meta_ephemeris_type": 0,
        "meta_classification_type": "U",
        "meta_norad_cat_id": 66754,
        "meta_element_set_no": 999,
        "meta_rev_at_epoch": 417,
        "meta_bstar": 0.00024164969,
        "meta_mean_motion_dot": 4.829e-05,
        "meta_mean_motion_ddot": 0,
        "tle_line1": "1 66754U 25276CS  25360.24886164  .00004829  00000+0  24165-3 0  9998",
        "tle_line2": "2 66754  97.4398  71.7930 0002596 180.1367 179.9866 15.17875463  4170"
      },
      "geometry": {
        "type": "Point",
        "coordinates": [
          23.17640286009154,
          80.18929812732262
        ]
      }
    },
    {
      "type": "Feature",
      "properties": {
        "norad_id": 66755,
        "name": "ICEYE-X62",
        "group": "last-30-days",
        "lat": 56.86093844252487,
        "lon": 60.70361820697557,
        "alt_km": 508.1330517877768,
        "timestamp": "2025-12-26T17:24:53.440449+00:00",
        "meta_object_name": "ICEYE-X62",
        "meta_object_id": "2025-276CT",
        "meta_epoch": "2025-12-26T04:30:09.835776",
        "meta_mean_motion": 15.17659268,
        "meta_eccentricity": 0.00011539,
        "meta_inclination": 97.44,
        "meta_ra_of_asc_node": 71.7214,
        "meta_arg_of_pericenter": 205.397,
        "meta_mean_anomaly": 154.7208,
        "meta_ephemeris_type": 0,
        "meta_classification_type": "U",
        "meta_norad_cat_id": 66755,
        "meta_element_set_no": 999,
        "meta_rev_at_epoch": 416,
        "meta_bstar": 0.00043035069,
        "meta_mean_motion_dot": 8.602e-05,
        "meta_mean_motion_ddot": 0,
        "tle_line1": "1 66755U 25276CT  25360.18761384  .00008602  00000+0  43035-3 0  9998",
        "tle_line2": "2 66755  97.4400  71.7214 0001153 205.3970 154.7208 15.17659268  4161"
      },
      "geometry": {
        "type": "Point",
        "coordinates": [
          60.70361820697557,
          56.86093844252487
        ]
      }
    },
    {
      "type": "Feature",
      "properties": {
        "norad_id": 66756,
        "name": "TRANSPORTER-15CU",
        "group": "last-30-days",
        "lat": 82.50337171388084,
        "lon": -24.44999409913145,
        "alt_km": 503.77123907955047,
        "timestamp": "2025-12-26T17:24:53.440459+00:00",
        "meta_object_name": "TRANSPORTER-15CU",
        "meta_object_id": "2025-276CU",
        "meta_epoch": "2025-12-26T04:21:34.719840",
        "meta_mean_motion": 15.17986065,
        "meta_eccentricity": 0.00018125,
        "meta_inclination": 97.4406,
        "meta_ra_of_asc_node": 71.734,
        "meta_arg_of_pericenter": 150.885,
        "meta_mean_anomaly": 209.2485,
        "meta_ephemeris_type": 0,
        "meta_classification_type": "U",
        "meta_norad_cat_id": 66756,
        "meta_element_set_no": 999,
        "meta_rev_at_epoch": 416,
        "meta_bstar": 0.00044346828,
        "meta_mean_motion_dot": 8.951e-05,
        "meta_mean_motion_ddot": 0,
        "tle_line1": "1 66756U 25276CU  25360.18165185  .00008951  00000+0  44347-3 0  9990",
        "tle_line2": "2 66756  97.4406  71.7340 0001812 150.8850 209.2485 15.17986065  4162"
      },
      "geometry": {
        "type": "Point",
        "coordinates": [
          -24.44999409913145,
          82.50337171388084
        ]
      }
    },
    {
      "type": "Feature",
      "properties": {
        "norad_id": 66757,
        "name": "TRANSPORTER-15CV",
        "group": "last-30-days",
        "lat": 76.92308815611247,
        "lon": -73.48516210358824,
        "alt_km": 505.3900140240821,
        "timestamp": "2025-12-26T17:24:53.440471+00:00",
        "meta_object_name": "TRANSPORTER-15CV",
        "meta_object_id": "2025-276CV",
        "meta_epoch": "2025-12-26T05:54:03.004704",
        "meta_mean_motion": 15.18289271,
        "meta_eccentricity": 0.00028631,
        "meta_inclination": 97.4409,
        "meta_ra_of_asc_node": 71.8035,
        "meta_arg_of_pericenter": 298.0607,
        "meta_mean_anomaly": 62.0337,
        "meta_ephemeris_type": 0,
        "meta_classification_type": "U",
        "meta_norad_cat_id": 66757,
        "meta_element_set_no": 999,
        "meta_rev_at_epoch": 417,
        "meta_bstar": 0.0052115974,
        "meta_mean_motion_dot": 0.00108292,
        "meta_mean_motion_ddot": 0,
        "tle_line1": "1 66757U 25276CV  25360.24586811  .00108292  00000+0  52116-2 0  9992",
        "tle_line2": "2 66757  97.4409  71.8035 0002863 298.0607  62.0337 15.18289271  4178"
      },
      "geometry": {
        "type": "Point",
        "coordinates": [
          -73.48516210358824,
          76.92308815611247
        ]
      }
    },
    {
      "type": "Feature",
      "properties": {
        "norad_id": 66758,
        "name": "TRANSPORTER-15CW",
        "group": "last-30-days",
        "lat": 76.06338100425401,
        "lon": -75.96487239651299,
        "alt_km": 503.42989069021496,
        "timestamp": "2025-12-26T17:24:53.440482+00:00",
        "meta_object_name": "TRANSPORTER-15CW",
        "meta_object_id": "2025-276CW",
        "meta_epoch": "2025-12-26T05:53:40.961472",
        "meta_mean_motion": 15.18115134,
        "meta_eccentricity": 0.00015575,
        "meta_inclination": 97.4386,
        "meta_ra_of_asc_node": 71.7938,
        "meta_arg_of_pericenter": 135.6569,
        "meta_mean_anomaly": 224.479,
        "meta_ephemeris_type": 0,
        "meta_classification_type": "U",
        "meta_norad_cat_id": 66758,
        "meta_element_set_no": 999,
        "meta_rev_at_epoch": 417,
        "meta_bstar": 0.00031536036,
        "meta_mean_motion_dot": 6.367e-05,
        "meta_mean_motion_ddot": 0,
        "tle_line1": "1 66758U 25276CW  25360.24561298  .00006367  00000+0  31536-3 0  9999",
        "tle_line2": "2 66758  97.4386  71.7938 0001557 135.6569 224.4790 15.18115134  4179"
      },
      "geometry": {
        "type": "Point",
        "coordinates": [
          -75.96487239651299,
          76.06338100425401
        ]
      }
    },
    {
      "type": "Feature",
      "properties": {
        "norad_id": 66759,
        "name": "TRANSPORTER-15CX",
        "group": "last-30-days",
        "lat": 65.94988660962468,
        "lon": -90.70289736058953,
        "alt_km": 503.712781142136,
        "timestamp": "2025-12-26T17:24:53.440492+00:00",
        "meta_object_name": "TRANSPORTER-15CX",
        "meta_object_id": "2025-276CX",
        "meta_epoch": "2025-12-26T05:50:51.354816",
        "meta_mean_motion": 15.18322691,
        "meta_eccentricity": 0.00014437,
        "meta_inclination": 97.4397,
        "meta_ra_of_asc_node": 71.797,
        "meta_arg_of_pericenter": 161.3338,
        "meta_mean_anomaly": 198.7949,
        "meta_ephemeris_type": 0,
        "meta_classification_type": "U",
        "meta_norad_cat_id": 66759,
        "meta_element_set_no": 999,
        "meta_rev_at_epoch": 417,
        "meta_bstar": 0.0018555139,
        "meta_mean_motion_dot": 0.00038179,
        "meta_mean_motion_ddot": 0,
        "tle_line1": "1 66759U 25276CX  25360.24364994  .00038179  00000+0  18555-2 0  9995",
        "tle_line2": "2 66759  97.4397  71.7970 0001443 161.3338 198.7949 15.18322691  4179"
      },
      "geometry": {
        "type": "Point",
        "coordinates": [
          -90.70289736058953,
          65.94988660962468
        ]
      }
    }
  ]
}